CCSDS_OMM_VERS = 2.0
CREATION_DATE  = 
ORIGINATOR     = 

OBJECT_NAME    = STARLINK-36582
OBJECT_ID      = 2026-018L
CENTER_NAME    = EARTH
REF_FRAME      = TEME
TIME_SYSTEM    = UTC
MEAN_ELEMENT_THEORY = SGP/SGP4

EPOCH          = 2026-02-13T06:00:02.000160
MEAN_MOTION    = 15.80856905
ECCENTRICITY   = .0000887
INCLINATION    = 97.2849
RA_OF_ASC_NODE = 108.8283
ARG_OF_PERICENTER = 91.6433
MEAN_ANOMALY   = 104.9732

EPHEMERIS_TYPE = 0
CLASSIFICATION_TYPE = U
NORAD_CAT_ID   = 67599
ELEMENT_SET_NO = 999
REV_AT_EPOCH   = 352
BSTAR          = -.47299991E-3
MEAN_MOTION_DOT = -.8998E-3
MEAN_MOTION_DDOT = 0

CCSDS_OMM_VERS = 2.0
CREATION_DATE  = 
ORIGINATOR     = 

OBJECT_NAME    = STARLINK-36640
OBJECT_ID      = 2026-018M
CENTER_NAME    = EARTH
REF_FRAME      = TEME
TIME_SYSTEM    = UTC
MEAN_ELEMENT_THEORY = SGP/SGP4

EPOCH          = 2026-02-13T06:00:02.000160
MEAN_MOTION    = 15.75273587
ECCENTRICITY   = .00014253
INCLINATION    = 97.2842
RA_OF_ASC_NODE = 108.8193
ARG_OF_PERICENTER = 71.8250
MEAN_ANOMALY   = 102.6666

EPHEMERIS_TYPE = 0
CLASSIFICATION_TYPE = U
NORAD_CAT_ID   = 67600
ELEMENT_SET_NO = 999
REV_AT_EPOCH   = 342
BSTAR          = -.12403889E-2
MEAN_MOTION_DOT = -.181921E-2
MEAN_MOTION_DDOT = 0

CCSDS_OMM_VERS = 2.0
CREATION_DATE  = 
ORIGINATOR     = 

OBJECT_NAME    = STARLINK-36635
OBJECT_ID      = 2026-018N
CENTER_NAME    = EARTH
REF_FRAME      = TEME
TIME_SYSTEM    = UTC
MEAN_ELEMENT_THEORY = SGP/SGP4

EPOCH          = 2026-02-13T06:00:02.000160
MEAN_MOTION    = 15.80859188
ECCENTRICITY   = .00010983
INCLINATION    = 97.2850
RA_OF_ASC_NODE = 108.8301
ARG_OF_PERICENTER = 112.4333
MEAN_ANOMALY   = 89.2276

EPHEMERIS_TYPE = 0
CLASSIFICATION_TYPE = U
NORAD_CAT_ID   = 67601
ELEMENT_SET_NO = 999
REV_AT_EPOCH   = 342
BSTAR          = -.50893873E-3
MEAN_MOTION_DOT = -.96744E-3
MEAN_MOTION_DDOT = 0

CCSDS_OMM_VERS = 2.0
CREATION_DATE  = 
ORIGINATOR     = 

OBJECT_NAME    = STARLINK-36631
OBJECT_ID      = 2026-018P
CENTER_NAME    = EARTH
REF_FRAME      = TEME
TIME_SYSTEM    = UTC
MEAN_ELEMENT_THEORY = SGP/SGP4

EPOCH          = 2026-02-13T06:00:02.000160
MEAN_MOTION    = 15.80825605
ECCENTRICITY   = .00012826
INCLINATION    = 97.2849
RA_OF_ASC_NODE = 108.8358
ARG_OF_PERICENTER = 88.0458
MEAN_ANOMALY   = 127.1477

EPHEMERIS_TYPE = 0
CLASSIFICATION_TYPE = U
NORAD_CAT_ID   = 67602
ELEMENT_SET_NO = 999
REV_AT_EPOCH   = 341
BSTAR          = -.94506917E-4
MEAN_MOTION_DOT = -.18214E-3
MEAN_MOTION_DDOT = 0

CCSDS_OMM_VERS = 2.0
CREATION_DATE  = 
ORIGINATOR     = 

OBJECT_NAME    = STARLINK-36626
OBJECT_ID      = 2026-018Q
CENTER_NAME    = EARTH
REF_FRAME      = TEME
TIME_SYSTEM    = UTC
MEAN_ELEMENT_THEORY = SGP/SGP4

EPOCH          = 2026-02-13T06:00:02.000160
MEAN_MOTION    = 15.80847040
ECCENTRICITY   = .00014167
INCLINATION    = 97.2850
RA_OF_ASC_NODE = 108.8432
ARG_OF_PERICENTER = 66.2587
MEAN_ANOMALY   = 166.9249

EPHEMERIS_TYPE = 0
CLASSIFICATION_TYPE = U
NORAD_CAT_ID   = 67603
ELEMENT_SET_NO = 999
REV_AT_EPOCH   = 341
BSTAR          = -.26136802E-3
MEAN_MOTION_DOT = -.49992E-3
MEAN_MOTION_DDOT = 0

CCSDS_OMM_VERS = 2.0
CREATION_DATE  = 
ORIGINATOR     = 

OBJECT_NAME    = STARLINK-36605
OBJECT_ID      = 2026-018R
CENTER_NAME    = EARTH
REF_FRAME      = TEME
TIME_SYSTEM    = UTC
MEAN_ELEMENT_THEORY = SGP/SGP4

EPOCH          = 2026-02-13T06:00:02.000160
MEAN_MOTION    = 15.75621639
ECCENTRICITY   = .0001246
INCLINATION    = 97.2845
RA_OF_ASC_NODE = 108.8381
ARG_OF_PERICENTER = 52.7549
MEAN_ANOMALY   = 165.5598

EPHEMERIS_TYPE = 0
CLASSIFICATION_TYPE = U
NORAD_CAT_ID   = 67604
ELEMENT_SET_NO = 999
REV_AT_EPOCH   = 341
BSTAR          = -.49367315E-2
MEAN_MOTION_DOT = -.692589E-2
MEAN_MOTION_DDOT = 0

CCSDS_OMM_VERS = 2.0
CREATION_DATE  = 
ORIGINATOR     = 

OBJECT_NAME    = STARLINK-36281
OBJECT_ID      = 2026-018S
CENTER_NAME    = EARTH
REF_FRAME      = TEME
TIME_SYSTEM    = UTC
MEAN_ELEMENT_THEORY = SGP/SGP4

EPOCH          = 2026-02-13T06:00:02.000160
MEAN_MOTION    = 15.80861889
ECCENTRICITY   = .00013064
INCLINATION    = 97.2852
RA_OF_ASC_NODE = 108.8374
ARG_OF_PERICENTER = 97.2832
MEAN_ANOMALY   = 124.9951

EPHEMERIS_TYPE = 0
CLASSIFICATION_TYPE = U
NORAD_CAT_ID   = 67605
ELEMENT_SET_NO = 999
REV_AT_EPOCH   = 346
BSTAR          = -.44690925E-3
MEAN_MOTION_DOT = -.85095E-3
MEAN_MOTION_DDOT = 0

CCSDS_OMM_VERS = 2.0
CREATION_DATE  = 
ORIGINATOR     = 

OBJECT_NAME    = STARLINK-35843
OBJECT_ID      = 2026-018T
CENTER_NAME    = EARTH
REF_FRAME      = TEME
TIME_SYSTEM    = UTC
MEAN_ELEMENT_THEORY = SGP/SGP4

EPOCH          = 2026-02-13T06:00:02.000160
MEAN_MOTION    = 15.80474179
ECCENTRICITY   = .0001812
INCLINATION    = 97.2853
RA_OF_ASC_NODE = 108.8454
ARG_OF_PERICENTER = 98.0963
MEAN_ANOMALY   = 140.6877

EPHEMERIS_TYPE = 0
CLASSIFICATION_TYPE = U
NORAD_CAT_ID   = 67606
ELEMENT_SET_NO = 999
REV_AT_EPOCH   = 347
BSTAR          = -.12014187E-1
MEAN_MOTION_DOT = -.1969626E-1
MEAN_MOTION_DDOT = 0

CCSDS_OMM_VERS = 2.0
CREATION_DATE  = 
ORIGINATOR     = 

OBJECT_NAME    = STARLINK-36351
OBJECT_ID      = 2026-018U
CENTER_NAME    = EARTH
REF_FRAME      = TEME
TIME_SYSTEM    = UTC
MEAN_ELEMENT_THEORY = SGP/SGP4

EPOCH          = 2026-02-13T06:00:02.000160
MEAN_MOTION    = 15.80827904
ECCENTRICITY   = .00004644
INCLINATION    = 97.2848
RA_OF_ASC_NODE = 108.8490
ARG_OF_PERICENTER = 155.7870
MEAN_ANOMALY   = 88.1337

EPHEMERIS_TYPE = 0
CLASSIFICATION_TYPE = U
NORAD_CAT_ID   = 67607
ELEMENT_SET_NO = 999
REV_AT_EPOCH   = 347
BSTAR          = -.17574612E-3
MEAN_MOTION_DOT = -.33692E-3
MEAN_MOTION_DDOT = 0

CCSDS_OMM_VERS = 2.0
CREATION_DATE  = 
ORIGINATOR     = 

OBJECT_NAME    = STARLINK-36411
OBJECT_ID      = 2026-018V
CENTER_NAME    = EARTH
REF_FRAME      = TEME
TIME_SYSTEM    = UTC
MEAN_ELEMENT_THEORY = SGP/SGP4

EPOCH          = 2026-02-13T06:00:02.000160
MEAN_MOTION    = 15.80837939
ECCENTRICITY   = .00011709
INCLINATION    = 97.2850
RA_OF_ASC_NODE = 108.8501
ARG_OF_PERICENTER = 84.0922
MEAN_ANOMALY   = 167.5444

EPHEMERIS_TYPE = 0
CLASSIFICATION_TYPE = U
NORAD_CAT_ID   = 67608
ELEMENT_SET_NO = 999
REV_AT_EPOCH   = 346
BSTAR          = -.14513883E-3
MEAN_MOTION_DOT = -.27881E-3
MEAN_MOTION_DDOT = 0

CCSDS_OMM_VERS = 2.0
CREATION_DATE  = 
ORIGINATOR     = 

OBJECT_NAME    = STARLINK-36312
OBJECT_ID      = 2026-018W
CENTER_NAME    = EARTH
REF_FRAME      = TEME
TIME_SYSTEM    = UTC
MEAN_ELEMENT_THEORY = SGP/SGP4

EPOCH          = 2026-02-13T06:00:02.000160
MEAN_MOTION    = 15.80822062
ECCENTRICITY   = .00013406
INCLINATION    = 97.2851
RA_OF_ASC_NODE = 108.8526
ARG_OF_PERICENTER = 50.6856
MEAN_ANOMALY   = 207.7195

EPHEMERIS_TYPE = 0
CLASSIFICATION_TYPE = U
NORAD_CAT_ID   = 67609
ELEMENT_SET_NO = 999
REV_AT_EPOCH   = 347
BSTAR          = -.30108753E-3
MEAN_MOTION_DOT = -.57453E-3
MEAN_MOTION_DDOT = 0

CCSDS_OMM_VERS = 2.0
CREATION_DATE  = 
ORIGINATOR     = 

OBJECT_NAME    = STARLINK-36387
OBJECT_ID      = 2026-018X
CENTER_NAME    = EARTH
REF_FRAME      = TEME
TIME_SYSTEM    = UTC
MEAN_ELEMENT_THEORY = SGP/SGP4

EPOCH          = 2026-02-13T06:00:02.000160
MEAN_MOTION    = 15.80847884
ECCENTRICITY   = .00013082
INCLINATION    = 97.2851
RA_OF_ASC_NODE = 108.8559
ARG_OF_PERICENTER = 96.3553
MEAN_ANOMALY   = 170.2323

EPHEMERIS_TYPE = 0
CLASSIFICATION_TYPE = U
NORAD_CAT_ID   = 67610
ELEMENT_SET_NO = 999
REV_AT_EPOCH   = 347
BSTAR          = -.37305181E-3
MEAN_MOTION_DOT = -.71123E-3
MEAN_MOTION_DDOT = 0

