STARLINK-36582          
1 67599U 26018L   26044.25002315 -.00089980  00000+0 -47300-3 0  9999
2 67599  97.2849 108.8283 0000887  91.6433 104.9732 15.80856905  3529
STARLINK-36640          
1 67600U 26018M   26044.25002315 -.00181921  00000+0 -12404-2 0  9996
2 67600  97.2842 108.8193 0001425  71.8250 102.6666 15.75273587  3424
STARLINK-36635          
1 67601U 26018N   26044.25002315 -.00096744  00000+0 -50894-3 0  9991
2 67601  97.2850 108.8301 0001098 112.4333  89.2276 15.80859188  3425
STARLINK-36631          
1 67602U 26018P   26044.25002315 -.00018214  00000+0 -94507-4 0  9998
2 67602  97.2849 108.8358 0001282  88.0458 127.1477 15.80825605  3418
STARLINK-36626          
1 67603U 26018Q   26044.25002315 -.00049992  00000+0 -26137-3 0  9999
2 67603  97.2850 108.8432 0001416  66.2587 166.9249 15.80847040  3419
STARLINK-36605          
1 67604U 26018R   26044.25002315 -.00692589  00000+0 -49367-2 0  9995
2 67604  97.2845 108.8381 0001246  52.7549 165.5598 15.75621639  3416
STARLINK-36281          
1 67605U 26018S   26044.25002315 -.00085095  00000+0 -44691-3 0  9990
2 67605  97.2852 108.8374 0001306  97.2832 124.9951 15.80861889  3469
STARLINK-35843          
1 67606U 26018T   26044.25002315 -.01969626  00000+0 -12014-1 0  9995
2 67606  97.2853 108.8454 0001812  98.0963 140.6877 15.80474179  3471
STARLINK-36351          
1 67607U 26018U   26044.25002315 -.00033692  00000+0 -17575-3 0  9999
2 67607  97.2848 108.8490 0000464 155.7870  88.1337 15.80827904  3471
STARLINK-36411          
1 67608U 26018V   26044.25002315 -.00027881  00000+0 -14514-3 0  9993
2 67608  97.2850 108.8501 0001170  84.0922 167.5444 15.80837939  3464
STARLINK-36312          
1 67609U 26018W   26044.25002315 -.00057453  00000+0 -30109-3 0  9990
2 67609  97.2851 108.8526 0001340  50.6856 207.7195 15.80822062  3479
STARLINK-36387          
1 67610U 26018X   26044.25002315 -.00071123  00000+0 -37305-3 0  9997
2 67610  97.2851 108.8559 0001308  96.3553 170.2323 15.80847884  3478
